{
    "links": {
        "self": "http://www.neowsapp.com/rest/v1/neo/3753577?api_key=iIulBulltgU6a56xZRHN4H3l9WmuAYTsLGpBGhQ2"
    },
    "id": "3753577",
    "neo_reference_id": "3753577",
    "name": "(2016 JF38)",
    "designation": "2016 JF38",
    "nasa_jpl_url": "http://ssd.jpl.nasa.gov/sbdb.cgi?sstr=3753577",
    "absolute_magnitude_h": 27.962,
    "estimated_diameter": {
        "kilometers": {
            "estimated_diameter_min": 0.0067944605,
            "estimated_diameter_max": 0.0151928755
        },
        "meters": {
            "estimated_diameter_min": 6.7944604753,
            "estimated_diameter_max": 15.1928754931
        },
        "miles": {
            "estimated_diameter_min": 0.0042218807,
            "estimated_diameter_max": 0.0094404122
        },
        "feet": {
            "estimated_diameter_min": 22.2915377057,
            "estimated_diameter_max": 49.8453936329
        }
    },
    "is_potentially_hazardous_asteroid": false,
    "close_approach_data": [
        {
            "close_approach_date": "2016-10-11",
            "close_approach_date_full": "2016-Oct-11 11:39",
            "epoch_date_close_approach": 1476185940000,
            "relative_velocity": {
                "kilometers_per_second": "3.460061744",
                "kilometers_per_hour": "12456.2222785064",
                "miles_per_hour": "7739.8121152197"
            },
            "miss_distance": {
                "astronomical": "0.2471405078",
                "lunar": "96.1376575342",
                "kilometers": "36971693.557598386",
                "miles": "22973145.0977982868"
            },
            "orbiting_body": "Earth"
        }
    ],
    "orbital_data": {
        "orbit_id": "8",
        "orbit_determination_date": "2019-12-18 11:33:26",
        "first_observation_date": "2016-05-01",
        "last_observation_date": "2016-05-03",
        "data_arc_in_days": 2,
        "observations_used": 8,
        "orbit_uncertainty": "9",
        "minimum_orbit_intersection": ".0115925",
        "jupiter_tisserand_invariant": "5.240",
        "epoch_osculation": "2457510.5",
        "eccentricity": ".2125155860664427",
        "semi_major_axis": "1.210469261783863",
        "inclination": "2.839569916481115",
        "ascending_node_longitude": "48.71420849602753",
        "orbital_period": "486.4397709116331",
        "perihelion_distance": ".9532256772004507",
        "perihelion_argument": "242.3163921555688",
        "aphelion_distance": "1.467712846367274",
        "perihelion_time": "2457576.276579458004",
        "mean_anomaly": "311.3206566960927",
        "mean_motion": ".7400710664042266",
        "equinox": "J2000",
        "orbit_class": {
            "orbit_class_type": "APO",
            "orbit_class_description": "Near-Earth asteroid orbits which cross the Earth’s orbit similar to that of 1862 Apollo",
            "orbit_class_range": "a (semi-major axis) > 1.0 AU; q (perihelion) < 1.017 AU"
        }
    },
    "is_sentry_object": false
}